[{"OBJECT_NAME":"STARLINK-36945","OBJECT_ID":"2026-041L","EPOCH":"2026-03-28T04:00:01.999584","MEAN_MOTION":15.75271911,"ECCENTRICITY":9.599e-5,"INCLINATION":53.1591,"RA_OF_ASC_NODE":329.5775,"ARG_OF_PERICENTER":61.132,"MEAN_ANOMALY":180.8629,"EPHEMERIS_TYPE":0,"CLASSIFICATION_TYPE":"U","NORAD_CAT_ID":68050,"ELEMENT_SET_NO":999,"REV_AT_EPOCH":534,"BSTAR":-0.00056008166,"MEAN_MOTION_DOT":-0.00085749,"MEAN_MOTION_DDOT":0},{"OBJECT_NAME":"STARLINK-35911","OBJECT_ID":"2026-041M","EPOCH":"2026-03-28T04:00:01.999584","MEAN_MOTION":15.75206619,"ECCENTRICITY":0.00012465,"INCLINATION":53.1591,"RA_OF_ASC_NODE":329.5245,"ARG_OF_PERICENTER":99.4361,"MEAN_ANOMALY":168.342,"EPHEMERIS_TYPE":0,"CLASSIFICATION_TYPE":"U","NORAD_CAT_ID":68051,"ELEMENT_SET_NO":999,"REV_AT_EPOCH":530,"BSTAR":0.00031580162,"MEAN_MOTION_DOT":0.00047975,"MEAN_MOTION_DDOT":0},{"OBJECT_NAME":"STARLINK-35808","OBJECT_ID":"2026-041N","EPOCH":"2026-03-28T01:46:52.782528","MEAN_MOTION":15.75379742,"ECCENTRICITY":0.00019184,"INCLINATION":53.1589,"RA_OF_ASC_NODE":330.193,"ARG_OF_PERICENTER":274.5397,"MEAN_ANOMALY":85.5404,"EPHEMERIS_TYPE":0,"CLASSIFICATION_TYPE":"U","NORAD_CAT_ID":68052,"ELEMENT_SET_NO":999,"REV_AT_EPOCH":412,"BSTAR":0.0021437321,"MEAN_MOTION_DOT":0.00343781,"MEAN_MOTION_DDOT":0},{"OBJECT_NAME":"STARLINK-36919","OBJECT_ID":"2026-041P","EPOCH":"2026-03-28T04:00:01.999584","MEAN_MOTION":15.75244914,"ECCENTRICITY":4.238e-5,"INCLINATION":53.1589,"RA_OF_ASC_NODE":329.4711,"ARG_OF_PERICENTER":75.2296,"MEAN_ANOMALY":218.2792,"EPHEMERIS_TYPE":0,"CLASSIFICATION_TYPE":"U","NORAD_CAT_ID":68053,"ELEMENT_SET_NO":999,"REV_AT_EPOCH":534,"BSTAR":-0.00048541509,"MEAN_MOTION_DOT":-0.0007441,"MEAN_MOTION_DDOT":0},{"OBJECT_NAME":"STARLINK-36924","OBJECT_ID":"2026-041Q","EPOCH":"2026-03-28T04:00:01.999584","MEAN_MOTION":15.75226919,"ECCENTRICITY":0.00010364,"INCLINATION":53.1597,"RA_OF_ASC_NODE":329.9468,"ARG_OF_PERICENTER":84.9449,"MEAN_ANOMALY":336.793,"EPHEMERIS_TYPE":0,"CLASSIFICATION_TYPE":"U","NORAD_CAT_ID":68054,"ELEMENT_SET_NO":999,"REV_AT_EPOCH":534,"BSTAR":0.00013588847,"MEAN_MOTION_DOT":0.00020229,"MEAN_MOTION_DDOT":0},{"OBJECT_NAME":"STARLINK-35998","OBJECT_ID":"2026-041R","EPOCH":"2026-03-28T03:11:14.635392","MEAN_MOTION":15.75272185,"ECCENTRICITY":7.449e-5,"INCLINATION":53.1592,"RA_OF_ASC_NODE":329.8435,"ARG_OF_PERICENTER":80.4183,"MEAN_ANOMALY":279.6921,"EPHEMERIS_TYPE":0,"CLASSIFICATION_TYPE":"U","NORAD_CAT_ID":68055,"ELEMENT_SET_NO":999,"REV_AT_EPOCH":413,"BSTAR":0.0015619722,"MEAN_MOTION_DOT":0.00246252,"MEAN_MOTION_DDOT":0},{"OBJECT_NAME":"STARLINK-36845","OBJECT_ID":"2026-041S","EPOCH":"2026-03-28T00:00:02.000160","MEAN_MOTION":15.75242649,"ECCENTRICITY":8.678e-5,"INCLINATION":53.1598,"RA_OF_ASC_NODE":330.4538,"ARG_OF_PERICENTER":96.1212,"MEAN_ANOMALY":256.2995,"EPHEMERIS_TYPE":0,"CLASSIFICATION_TYPE":"U","NORAD_CAT_ID":68056,"ELEMENT_SET_NO":999,"REV_AT_EPOCH":532,"BSTAR":1.7150414e-5,"MEAN_MOTION_DOT":1.991e-5,"MEAN_MOTION_DDOT":0},{"OBJECT_NAME":"STARLINK-36954","OBJECT_ID":"2026-041T","EPOCH":"2026-03-28T03:43:55.157664","MEAN_MOTION":15.75304086,"ECCENTRICITY":7.09e-5,"INCLINATION":53.1602,"RA_OF_ASC_NODE":329.9954,"ARG_OF_PERICENTER":59.1227,"MEAN_ANOMALY":300.9862,"EPHEMERIS_TYPE":0,"CLASSIFICATION_TYPE":"U","NORAD_CAT_ID":68057,"ELEMENT_SET_NO":999,"REV_AT_EPOCH":413,"BSTAR":0.00088025,"MEAN_MOTION_DOT":0.00136884,"MEAN_MOTION_DDOT":0},{"OBJECT_NAME":"STARLINK-36899","OBJECT_ID":"2026-041U","EPOCH":"2026-03-28T03:37:51.389472","MEAN_MOTION":15.75324541,"ECCENTRICITY":8.763e-5,"INCLINATION":53.1604,"RA_OF_ASC_NODE":329.9661,"ARG_OF_PERICENTER":79.8316,"MEAN_ANOMALY":280.2803,"EPHEMERIS_TYPE":0,"CLASSIFICATION_TYPE":"U","NORAD_CAT_ID":68058,"ELEMENT_SET_NO":999,"REV_AT_EPOCH":413,"BSTAR":0.0011837309,"MEAN_MOTION_DOT":0.00185538,"MEAN_MOTION_DDOT":0},{"OBJECT_NAME":"STARLINK-36917","OBJECT_ID":"2026-041V","EPOCH":"2026-03-28T03:24:49.593888","MEAN_MOTION":15.70609957,"ECCENTRICITY":0.0018404,"INCLINATION":53.1588,"RA_OF_ASC_NODE":329.9065,"ARG_OF_PERICENTER":109.5508,"MEAN_ANOMALY":250.75,"EPHEMERIS_TYPE":0,"CLASSIFICATION_TYPE":"U","NORAD_CAT_ID":68059,"ELEMENT_SET_NO":999,"REV_AT_EPOCH":413,"BSTAR":-0.057496903,"MEAN_MOTION_DOT":-0.05976352,"MEAN_MOTION_DDOT":0},{"OBJECT_NAME":"STARLINK-36959","OBJECT_ID":"2026-041W","EPOCH":"2026-03-28T03:31:19.234560","MEAN_MOTION":15.75320784,"ECCENTRICITY":0.00011356,"INCLINATION":53.1589,"RA_OF_ASC_NODE":329.9347,"ARG_OF_PERICENTER":143.1098,"MEAN_ANOMALY":217.0001,"EPHEMERIS_TYPE":0,"CLASSIFICATION_TYPE":"U","NORAD_CAT_ID":68060,"ELEMENT_SET_NO":999,"REV_AT_EPOCH":413,"BSTAR":0.0012865825,"MEAN_MOTION_DOT":0.0020208,"MEAN_MOTION_DDOT":0},{"OBJECT_NAME":"STARLINK-36915","OBJECT_ID":"2026-041X","EPOCH":"2026-03-28T06:07:54.158016","MEAN_MOTION":15.75365642,"ECCENTRICITY":0.00010028,"INCLINATION":53.16,"RA_OF_ASC_NODE":329.1847,"ARG_OF_PERICENTER":20.7198,"MEAN_ANOMALY":339.3863,"EPHEMERIS_TYPE":0,"CLASSIFICATION_TYPE":"U","NORAD_CAT_ID":68061,"ELEMENT_SET_NO":999,"REV_AT_EPOCH":415,"BSTAR":0.0023654759,"MEAN_MOTION_DOT":0.00380878,"MEAN_MOTION_DDOT":0},{"OBJECT_NAME":"STARLINK-36952","OBJECT_ID":"2026-041Y","EPOCH":"2026-03-28T02:06:01.484352","MEAN_MOTION":15.75318542,"ECCENTRICITY":8.91e-5,"INCLINATION":53.1601,"RA_OF_ASC_NODE":330.2811,"ARG_OF_PERICENTER":76.7876,"MEAN_ANOMALY":283.3244,"EPHEMERIS_TYPE":0,"CLASSIFICATION_TYPE":"U","NORAD_CAT_ID":68062,"ELEMENT_SET_NO":999,"REV_AT_EPOCH":412,"BSTAR":0.0015989,"MEAN_MOTION_DOT":0.00252794,"MEAN_MOTION_DDOT":0},{"OBJECT_NAME":"STARLINK-37000","OBJECT_ID":"2026-041Z","EPOCH":"2026-03-27T22:37:37.875072","MEAN_MOTION":15.75294267,"ECCENTRICITY":9.68e-5,"INCLINATION":53.1602,"RA_OF_ASC_NODE":330.7922,"ARG_OF_PERICENTER":90.4751,"MEAN_ANOMALY":269.638,"EPHEMERIS_TYPE":0,"CLASSIFICATION_TYPE":"U","NORAD_CAT_ID":68063,"ELEMENT_SET_NO":999,"REV_AT_EPOCH":410,"BSTAR":0.0014671,"MEAN_MOTION_DOT":0.00231049,"MEAN_MOTION_DDOT":0},{"OBJECT_NAME":"STARLINK-36996","OBJECT_ID":"2026-041AA","EPOCH":"2026-03-28T04:00:01.999584","MEAN_MOTION":15.7530522,"ECCENTRICITY":9.829e-5,"INCLINATION":53.1586,"RA_OF_ASC_NODE":329.4165,"ARG_OF_PERICENTER":83.875,"MEAN_ANOMALY":235.4873,"EPHEMERIS_TYPE":0,"CLASSIFICATION_TYPE":"U","NORAD_CAT_ID":68064,"ELEMENT_SET_NO":999,"REV_AT_EPOCH":534,"BSTAR":-0.0011350648,"MEAN_MOTION_DOT":-0.00171641,"MEAN_MOTION_DDOT":0},{"OBJECT_NAME":"STARLINK-36836","OBJECT_ID":"2026-041AB","EPOCH":"2026-03-28T04:00:01.999584","MEAN_MOTION":15.75256854,"ECCENTRICITY":0.00010369,"INCLINATION":53.1586,"RA_OF_ASC_NODE":329.4123,"ARG_OF_PERICENTER":61.8346,"MEAN_ANOMALY":259.4351,"EPHEMERIS_TYPE":0,"CLASSIFICATION_TYPE":"U","NORAD_CAT_ID":68065,"ELEMENT_SET_NO":999,"REV_AT_EPOCH":534,"BSTAR":-0.00096069219,"MEAN_MOTION_DOT":-0.00145509,"MEAN_MOTION_DDOT":0}]
